0 IRIDIUM 914
1 24836U 97030A   13281.46563392  .00000212  00000-0  63420-4 0   956
2 24836 086.3996 182.2070 0002158 146.3633 314.6203 14.38021474855201
0 IRIDIUM 914
1 24836U 97030A   13282.30809719  .00000234  00000-0  70871-4 0   969
2 24836 086.3996 181.8530 0002226 145.4980 354.0464 14.38022948855325
0 IRIDIUM 914
1 24836U 97030A   13283.35068812  .00000235  00000-0  71172-4 0   973
2 24836 086.3996 181.4150 0002317 144.5954 348.8951 14.38023375855474
0 IRIDIUM 914
1 24836U 97030A   13284.32581885  .00000258  00000-0  78602-4 0   982
2 24836 086.3995 181.0053 0002397 143.7346 354.6920 14.38023689855610
0 IRIDIUM 914
1 24836U 97030A   13285.29946389  .00000246  00000-0  74950-4 0   993
2 24836 086.3994 180.5963 0002477 142.8097 352.8685 14.38024035855754
0 IRIDIUM 914
1 24836U 97030A   13286.34342826  .00000261  00000-0  79586-4 0  1006
2 24836 086.3993 180.1577 0002559 141.5276 355.2079 14.38024320855904
0 IRIDIUM 914
1 24836U 97030A   13287.31791824  .00000298  00000-0  92018-4 0  1016
2 24836 086.3991 179.7484 0002627 140.4068 357.9538 14.38024863856043
0 IRIDIUM 914
1 24836U 97030A   13288.22634156  .00000405  00000-0  12733-3 0  1027
2 24836 086.3990 179.3668 0002684 139.2896 018.8955 14.38025885856175
0 IRIDIUM 914
1 24836U 97030A   13289.33548380  .00000297  00000-0  91735-4 0  1033
2 24836 086.3987 178.9009 0002775 138.2058 358.2471 14.38026741856339
0 IRIDIUM 914
1 24836U 97030A   13289.33548380  .00000297  00000-0  91735-4 0  1044
2 24836 086.3987 178.9009 0002775 138.2058 358.2471 14.38026741856339
0 IRIDIUM 914
1 24836U 97030A   13290.30997532  .00000320  00000-0  99302-4 0  1056
2 24836 086.3985 178.4916 0002841 137.0599 001.0338 14.38027315856478
0 IRIDIUM 914
1 24836U 97030A   13291.28433081  .00000308  00000-0  95356-4 0  1060
2 24836 086.3984 178.0822 0002908 136.0089 003.0243 14.38027957856611
0 IRIDIUM 914
1 24836U 97030A   13292.32752086  .00000317  00000-0  98170-4 0  1073
2 24836 086.3982 177.6439 0002994 134.8189 001.2804 14.38028604856769
0 IRIDIUM 914
1 24836U 97030A   13293.30202273  .00000342  00000-0  10648-3 0  1082
2 24836 086.3981 177.2343 0003064 133.6946 004.1063 14.38029388856900
0 IRIDIUM 914
1 24836U 97030A   13294.27640519  .00000335  00000-0  10414-3 0  1092
2 24836 086.3981 176.8249 0003117 132.4559 006.4311 14.38030237857048
0 IRIDIUM 914
1 24836U 97030A   13295.32020034  .00000342  00000-0  10660-3 0  1106
2 24836 086.3980 176.3863 0003175 131.0700 008.0212 14.38030886857195
